[{"OBJECT_NAME":"STARLINK-5215","OBJECT_ID":"2022-175B","EPOCH":"2026-03-09T22:32:26.708928","MEAN_MOTION":15.08841247,"ECCENTRICITY":0.00015492,"INCLINATION":53.2175,"RA_OF_ASC_NODE":38.2229,"ARG_OF_PERICENTER":94.6855,"MEAN_ANOMALY":265.4314,"EPHEMERIS_TYPE":0,"CLASSIFICATION_TYPE":"U","NORAD_CAT_ID":54759,"ELEMENT_SET_NO":999,"REV_AT_EPOCH":18002,"BSTAR":-5.6332374e-5,"MEAN_MOTION_DOT":-1.184e-5,"MEAN_MOTION_DDOT":0},{"OBJECT_NAME":"OBJECT G","OBJECT_ID":"2026-027G","EPOCH":"2026-03-09T21:53:37.288032","MEAN_MOTION":15.12145257,"ECCENTRICITY":0.00120269,"INCLINATION":97.4906,"RA_OF_ASC_NODE":197.8999,"ARG_OF_PERICENTER":227.3105,"MEAN_ANOMALY":132.7114,"EPHEMERIS_TYPE":0,"CLASSIFICATION_TYPE":"U","NORAD_CAT_ID":67752,"ELEMENT_SET_NO":999,"REV_AT_EPOCH":389,"BSTAR":0.00053594907,"MEAN_MOTION_DOT":9.195e-5,"MEAN_MOTION_DDOT":0}]
